{"epoch":1784710044,"count":18256,"objects":[{"id":"41335","name":"SENTINEL 3A","type":"PAYLOAD","l1":"1 41335U 16011A   26202.58017934  .00000041  00000-0  35166-4 0  9994","l2":"2 41335  98.6232 269.4668 0001303  88.7627 271.3703 14.26740972542965"},{"id":"43437","name":"SENTINEL 3B","type":"PAYLOAD","l1":"1 43437U 18039A   26202.62346592  .00000060  00000-0  42646-4 0  9993","l2":"2 43437  98.6231 269.6585 0001288 118.3854 241.7456 14.26737647429036"}]}